[{"OBJECT_NAME":"ICOR SV","OBJECT_ID":"2026-046A","EPOCH":"2026-04-01T05:02:50.258688","MEAN_MOTION":15.97332299,"ECCENTRICITY":0.0095624,"INCLINATION":123.0744,"RA_OF_ASC_NODE":308.7177,"ARG_OF_PERICENTER":229.0538,"MEAN_ANOMALY":130.2231,"EPHEMERIS_TYPE":0,"CLASSIFICATION_TYPE":"U","NORAD_CAT_ID":68127,"ELEMENT_SET_NO":999,"REV_AT_EPOCH":318,"BSTAR":0.0006196,"MEAN_MOTION_DOT":0.00460646,"MEAN_MOTION_DDOT":1.2195e-5},{"OBJECT_NAME":"FIREFLY ALPHA R/B","OBJECT_ID":"2026-046B","EPOCH":"2026-04-01T01:09:12.243168","MEAN_MOTION":15.57541444,"ECCENTRICITY":0.0016768,"INCLINATION":123.0933,"RA_OF_ASC_NODE":303.6646,"ARG_OF_PERICENTER":24.3733,"MEAN_ANOMALY":335.8117,"EPHEMERIS_TYPE":0,"CLASSIFICATION_TYPE":"U","NORAD_CAT_ID":68128,"ELEMENT_SET_NO":999,"REV_AT_EPOCH":312,"BSTAR":0.00059296,"MEAN_MOTION_DOT":0.0004445,"MEAN_MOTION_DDOT":0},{"OBJECT_NAME":"GUOWANG GROUP 20 OBJECT A","OBJECT_ID":"2026-047A","EPOCH":"2026-03-27T14:49:26.211072","MEAN_MOTION":13.95400488,"ECCENTRICITY":0.0001326,"INCLINATION":50.0073,"RA_OF_ASC_NODE":357.5704,"ARG_OF_PERICENTER":229.8596,"MEAN_ANOMALY":130.2189,"EPHEMERIS_TYPE":0,"CLASSIFICATION_TYPE":"U","NORAD_CAT_ID":68129,"ELEMENT_SET_NO":999,"REV_AT_EPOCH":208,"BSTAR":3.4814e-5,"MEAN_MOTION_DOT":-1.01e-6,"MEAN_MOTION_DDOT":0},{"OBJECT_NAME":"GUOWANG GROUP 20 OBJECT B","OBJECT_ID":"2026-047B","EPOCH":"2026-03-26T18:09:03.081024","MEAN_MOTION":13.9659141,"ECCENTRICITY":4.28e-5,"INCLINATION":50.0066,"RA_OF_ASC_NODE":1.0171,"ARG_OF_PERICENTER":307.3036,"MEAN_ANOMALY":52.7826,"EPHEMERIS_TYPE":0,"CLASSIFICATION_TYPE":"U","NORAD_CAT_ID":68130,"ELEMENT_SET_NO":999,"REV_AT_EPOCH":195,"BSTAR":5.5036e-5,"MEAN_MOTION_DOT":-7.2e-7,"MEAN_MOTION_DDOT":0},{"OBJECT_NAME":"GUOWANG GROUP 20 OBJECT C","OBJECT_ID":"2026-047C","EPOCH":"2026-03-26T19:49:39.748800","MEAN_MOTION":13.9686269,"ECCENTRICITY":4.8e-6,"INCLINATION":49.9996,"RA_OF_ASC_NODE":0.7054,"ARG_OF_PERICENTER":49.5998,"MEAN_ANOMALY":310.4907,"EPHEMERIS_TYPE":0,"CLASSIFICATION_TYPE":"U","NORAD_CAT_ID":68131,"ELEMENT_SET_NO":999,"REV_AT_EPOCH":197,"BSTAR":2.709e-5,"MEAN_MOTION_DOT":-1.11e-6,"MEAN_MOTION_DDOT":0},{"OBJECT_NAME":"GUOWANG GROUP 20 OBJECT D","OBJECT_ID":"2026-047D","EPOCH":"2026-03-24T19:43:51.842784","MEAN_MOTION":14.00513037,"ECCENTRICITY":0.00024162,"INCLINATION":50.0048,"RA_OF_ASC_NODE":8.7665,"ARG_OF_PERICENTER":7.3102,"MEAN_ANOMALY":352.7836,"EPHEMERIS_TYPE":0,"CLASSIFICATION_TYPE":"U","NORAD_CAT_ID":68132,"ELEMENT_SET_NO":999,"REV_AT_EPOCH":168,"BSTAR":3.2408862e-5,"MEAN_MOTION_DOT":-1.02e-6,"MEAN_MOTION_DDOT":0},{"OBJECT_NAME":"GUOWANG GROUP 20 OBJECT E","OBJECT_ID":"2026-047E","EPOCH":"2026-03-30T02:20:10.830048","MEAN_MOTION":14.01483768,"ECCENTRICITY":0.00307696,"INCLINATION":49.9775,"RA_OF_ASC_NODE":347.444,"ARG_OF_PERICENTER":44.8262,"MEAN_ANOMALY":315.512,"EPHEMERIS_TYPE":0,"CLASSIFICATION_TYPE":"U","NORAD_CAT_ID":68133,"ELEMENT_SET_NO":999,"REV_AT_EPOCH":243,"BSTAR":2.9276056e-5,"MEAN_MOTION_DOT":-1.06e-6,"MEAN_MOTION_DDOT":0},{"OBJECT_NAME":"GUOWANG GROUP 20 OBJECT F","OBJECT_ID":"2026-047F","EPOCH":"2026-03-24T02:31:27.101856","MEAN_MOTION":14.01903676,"ECCENTRICITY":4.752e-5,"INCLINATION":50.0123,"RA_OF_ASC_NODE":11.6502,"ARG_OF_PERICENTER":222.9253,"MEAN_ANOMALY":137.1614,"EPHEMERIS_TYPE":0,"CLASSIFICATION_TYPE":"U","NORAD_CAT_ID":68134,"ELEMENT_SET_NO":999,"REV_AT_EPOCH":158,"BSTAR":7.7668349e-5,"MEAN_MOTION_DOT":-3.2e-7,"MEAN_MOTION_DDOT":0},{"OBJECT_NAME":"GUOWANG GROUP 20 OBJECT G","OBJECT_ID":"2026-047G","EPOCH":"2026-03-26T17:51:49.939200","MEAN_MOTION":14.01583953,"ECCENTRICITY":0.00048065,"INCLINATION":50.0409,"RA_OF_ASC_NODE":0.8903,"ARG_OF_PERICENTER":213.0056,"MEAN_ANOMALY":147.0548,"EPHEMERIS_TYPE":0,"CLASSIFICATION_TYPE":"U","NORAD_CAT_ID":68135,"ELEMENT_SET_NO":999,"REV_AT_EPOCH":196,"BSTAR":0.00011069373,"MEAN_MOTION_DOT":1.8e-7,"MEAN_MOTION_DDOT":0},{"OBJECT_NAME":"GUOWANG GROUP 20 OBJECT H","OBJECT_ID":"2026-047H","EPOCH":"2026-03-25T00:46:09.563232","MEAN_MOTION":14.01074305,"ECCENTRICITY":0.0014532,"INCLINATION":49.953,"RA_OF_ASC_NODE":7.8688,"ARG_OF_PERICENTER":103.7924,"MEAN_ANOMALY":256.4596,"EPHEMERIS_TYPE":0,"CLASSIFICATION_TYPE":"U","NORAD_CAT_ID":68136,"ELEMENT_SET_NO":999,"REV_AT_EPOCH":171,"BSTAR":3.3918e-5,"MEAN_MOTION_DOT":-9.9e-7,"MEAN_MOTION_DDOT":0},{"OBJECT_NAME":"GUOWANG GROUP 20 OBJECT J","OBJECT_ID":"2026-047J","EPOCH":"2026-03-29T05:59:36.933792","MEAN_MOTION":13.9392412,"ECCENTRICITY":9.825e-5,"INCLINATION":50.0061,"RA_OF_ASC_NODE":350.8887,"ARG_OF_PERICENTER":211.4979,"MEAN_ANOMALY":148.5862,"EPHEMERIS_TYPE":0,"CLASSIFICATION_TYPE":"U","NORAD_CAT_ID":68137,"ELEMENT_SET_NO":999,"REV_AT_EPOCH":231,"BSTAR":1.9244539e-5,"MEAN_MOTION_DOT":-1.22e-6,"MEAN_MOTION_DDOT":0},{"OBJECT_NAME":"CZ-8A R/B","OBJECT_ID":"2026-047K","EPOCH":"2026-04-01T04:31:59.919744","MEAN_MOTION":14.12232437,"ECCENTRICITY":0.0044754,"INCLINATION":49.9536,"RA_OF_ASC_NODE":337.6391,"ARG_OF_PERICENTER":215.5591,"MEAN_ANOMALY":144.2331,"EPHEMERIS_TYPE":0,"CLASSIFICATION_TYPE":"U","NORAD_CAT_ID":68138,"ELEMENT_SET_NO":999,"REV_AT_EPOCH":273,"BSTAR":3.1659e-5,"MEAN_MOTION_DOT":-9.5e-7,"MEAN_MOTION_DDOT":0},{"OBJECT_NAME":"CZ-2D R/B","OBJECT_ID":"2026-048C","EPOCH":"2026-04-01T03:32:06.796032","MEAN_MOTION":14.95577994,"ECCENTRICITY":0.0015411,"INCLINATION":35.1311,"RA_OF_ASC_NODE":9.1769,"ARG_OF_PERICENTER":164.0129,"MEAN_ANOMALY":196.1068,"EPHEMERIS_TYPE":0,"CLASSIFICATION_TYPE":"U","NORAD_CAT_ID":68141,"ELEMENT_SET_NO":999,"REV_AT_EPOCH":286,"BSTAR":0.00021343,"MEAN_MOTION_DOT":2.389e-5,"MEAN_MOTION_DDOT":0},{"OBJECT_NAME":"STARLINK-36604","OBJECT_ID":"2026-049A","EPOCH":"2026-04-01T04:00:03.999744","MEAN_MOTION":15.7520368,"ECCENTRICITY":0.0001324,"INCLINATION":97.2838,"RA_OF_ASC_NODE":111.5365,"ARG_OF_PERICENTER":90.9056,"MEAN_ANOMALY":50.9917,"EPHEMERIS_TYPE":0,"CLASSIFICATION_TYPE":"U","NORAD_CAT_ID":68142,"ELEMENT_SET_NO":999,"REV_AT_EPOCH":424,"BSTAR":-5.4715e-5,"MEAN_MOTION_DOT":-8.288e-5,"MEAN_MOTION_DDOT":0}]
